{
    "links": {
        "self": "http://www.neowsapp.com/rest/v1/neo/3351831?api_key=iIulBulltgU6a56xZRHN4H3l9WmuAYTsLGpBGhQ2"
    },
    "id": "3351831",
    "neo_reference_id": "3351831",
    "name": "(2006 UA17)",
    "designation": "2006 UA17",
    "nasa_jpl_url": "http://ssd.jpl.nasa.gov/sbdb.cgi?sstr=3351831",
    "absolute_magnitude_h": 23.8,
    "estimated_diameter": {
        "kilometers": {
            "estimated_diameter_min": 0.046190746,
            "estimated_diameter_max": 0.1032856481
        },
        "meters": {
            "estimated_diameter_min": 46.1907460282,
            "estimated_diameter_max": 103.2856480504
        },
        "miles": {
            "estimated_diameter_min": 0.0287015901,
            "estimated_diameter_max": 0.0641787064
        },
        "feet": {
            "estimated_diameter_min": 151.544447199,
            "estimated_diameter_max": 338.8636855496
        }
    },
    "is_potentially_hazardous_asteroid": false,
    "close_approach_data": [
        {
            "close_approach_date": "2006-05-14",
            "close_approach_date_full": "2006-May-14 12:47",
            "epoch_date_close_approach": 1147610820000,
            "relative_velocity": {
                "kilometers_per_second": "11.6688939522",
                "kilometers_per_hour": "42008.0182279618",
                "miles_per_hour": "26102.1488817021"
            },
            "miss_distance": {
                "astronomical": "0.3332717034",
                "lunar": "129.6426926226",
                "kilometers": "49856736.959911758",
                "miles": "30979539.8065399404"
            },
            "orbiting_body": "Earth"
        },
        {
            "close_approach_date": "2006-10-13",
            "close_approach_date_full": "2006-Oct-13 12:49",
            "epoch_date_close_approach": 1160743740000,
            "relative_velocity": {
                "kilometers_per_second": "13.0585437919",
                "kilometers_per_hour": "47010.7576508076",
                "miles_per_hour": "29210.656608081"
            },
            "miss_distance": {
                "astronomical": "0.1037481612",
                "lunar": "40.3580347068",
                "kilometers": "15520503.931936644",
                "miles": "9643993.9453639272"
            },
            "orbiting_body": "Earth"
        }
    ],
    "orbital_data": {
        "orbit_id": "9",
        "orbit_determination_date": "2017-04-06 09:07:51",
        "first_observation_date": "2006-10-19",
        "last_observation_date": "2006-10-23",
        "data_arc_in_days": 4,
        "observations_used": 28,
        "orbit_uncertainty": "8",
        "minimum_orbit_intersection": ".10118",
        "jupiter_tisserand_invariant": "4.696",
        "epoch_osculation": "2454028.5",
        "eccentricity": ".2882884544853361",
        "semi_major_axis": "1.375365172711179",
        "inclination": "21.98937567671531",
        "ascending_node_longitude": "207.8174978429254",
        "orbital_period": "589.1494290545443",
        "perihelion_distance": ".9788632727173157",
        "perihelion_argument": "116.7593273416494",
        "aphelion_distance": "1.771867072705042",
        "perihelion_time": "2453969.771375192023",
        "mean_anomaly": "35.88615025020135",
        "mean_motion": ".6110504097028849",
        "equinox": "J2000",
        "orbit_class": {
            "orbit_class_type": "APO",
            "orbit_class_description": "Near-Earth asteroid orbits which cross the Earth’s orbit similar to that of 1862 Apollo",
            "orbit_class_range": "a (semi-major axis) > 1.0 AU; q (perihelion) < 1.017 AU"
        }
    },
    "is_sentry_object": false
}